[{"OBJECT_NAME":"TRANSPORTER-15 OBJECT C","OBJECT_ID":"2025-276C","EPOCH":"2026-03-09T17:56:22.913088","MEAN_MOTION":15.22195559,"ECCENTRICITY":0.00067905,"INCLINATION":97.4128,"RA_OF_ASC_NODE":143.9755,"ARG_OF_PERICENTER":5.1753,"MEAN_ANOMALY":354.9553,"EPHEMERIS_TYPE":0,"CLASSIFICATION_TYPE":"U","NORAD_CAT_ID":66668,"ELEMENT_SET_NO":999,"REV_AT_EPOCH":1533,"BSTAR":0.0013438378,"MEAN_MOTION_DOT":0.00030911,"MEAN_MOTION_DDOT":0},{"OBJECT_NAME":"OBJECT AE","OBJECT_ID":"2025-313AE","EPOCH":"2026-03-09T22:39:11.546496","MEAN_MOTION":15.21274921,"ECCENTRICITY":0.00138698,"INCLINATION":97.3973,"RA_OF_ASC_NODE":145.1623,"ARG_OF_PERICENTER":1.9486,"MEAN_ANOMALY":358.1801,"EPHEMERIS_TYPE":0,"CLASSIFICATION_TYPE":"U","NORAD_CAT_ID":67276,"ELEMENT_SET_NO":999,"REV_AT_EPOCH":1085,"BSTAR":0.00043089391,"MEAN_MOTION_DOT":9.592e-5,"MEAN_MOTION_DDOT":0}]
